CCSDS_OMM_VERS = 2.0
CREATION_DATE  = 
ORIGINATOR     = 

OBJECT_NAME    = ALOS (DAICHI)
OBJECT_ID      = 2006-002A
CENTER_NAME    = EARTH
REF_FRAME      = TEME
TIME_SYSTEM    = UTC
MEAN_ELEMENT_THEORY = SGP/SGP4

EPOCH          = 2026-02-25T10:52:31.410912
MEAN_MOTION    = 14.69763473
ECCENTRICITY   = .00014463
INCLINATION    = 98.1197
RA_OF_ASC_NODE = 12.4722
ARG_OF_PERICENTER = 53.7253
MEAN_ANOMALY   = 306.4086

EPHEMERIS_TYPE = 0
CLASSIFICATION_TYPE = U
NORAD_CAT_ID   = 28931
ELEMENT_SET_NO = 999
REV_AT_EPOCH   = 7168
BSTAR          = .23808876E-3
MEAN_MOTION_DOT = .1371E-4
MEAN_MOTION_DDOT = 0

CCSDS_OMM_VERS = 2.0
CREATION_DATE  = 
ORIGINATOR     = 

OBJECT_NAME    = H-2A R/B
OBJECT_ID      = 2006-002B
CENTER_NAME    = EARTH
REF_FRAME      = TEME
TIME_SYSTEM    = UTC
MEAN_ELEMENT_THEORY = SGP/SGP4

EPOCH          = 2026-02-26T03:02:08.803392
MEAN_MOTION    = 15.16137625
ECCENTRICITY   = .00519355
INCLINATION    = 98.2385
RA_OF_ASC_NODE = 203.1603
ARG_OF_PERICENTER = 280.9051
MEAN_ANOMALY   = 78.6338

EPHEMERIS_TYPE = 0
CLASSIFICATION_TYPE = U
NORAD_CAT_ID   = 28932
ELEMENT_SET_NO = 999
REV_AT_EPOCH   = 9268
BSTAR          = .42278012E-3
MEAN_MOTION_DOT = .8357E-4
MEAN_MOTION_DDOT = 0

CCSDS_OMM_VERS = 2.0
CREATION_DATE  = 
ORIGINATOR     = 

OBJECT_NAME    = RESURS-DK 1
OBJECT_ID      = 2006-021A
CENTER_NAME    = EARTH
REF_FRAME      = TEME
TIME_SYSTEM    = UTC
MEAN_ELEMENT_THEORY = SGP/SGP4

EPOCH          = 2026-02-26T00:42:33.780960
MEAN_MOTION    = 15.12659706
ECCENTRICITY   = .0002779
INCLINATION    = 69.9312
RA_OF_ASC_NODE = 267.1863
ARG_OF_PERICENTER = 170.8611
MEAN_ANOMALY   = 189.2606

EPHEMERIS_TYPE = 0
CLASSIFICATION_TYPE = U
NORAD_CAT_ID   = 29228
ELEMENT_SET_NO = 999
REV_AT_EPOCH   = 8576
BSTAR          = .12902E-3
MEAN_MOTION_DOT = .2154E-4
MEAN_MOTION_DDOT = 0

CCSDS_OMM_VERS = 2.0
CREATION_DATE  = 
ORIGINATOR     = 

OBJECT_NAME    = CZ-4B R/B
OBJECT_ID      = 2006-046C
CENTER_NAME    = EARTH
REF_FRAME      = TEME
TIME_SYSTEM    = UTC
MEAN_ELEMENT_THEORY = SGP/SGP4

EPOCH          = 2026-02-26T03:08:10.316544
MEAN_MOTION    = 15.16765125
ECCENTRICITY   = .00319873
INCLINATION    = 97.5626
RA_OF_ASC_NODE = 102.0705
ARG_OF_PERICENTER = 309.3597
MEAN_ANOMALY   = 50.4802

EPHEMERIS_TYPE = 0
CLASSIFICATION_TYPE = U
NORAD_CAT_ID   = 29507
ELEMENT_SET_NO = 999
REV_AT_EPOCH   = 5829
BSTAR          = .24881561E-3
MEAN_MOTION_DOT = .4876E-4
MEAN_MOTION_DDOT = 0

CCSDS_OMM_VERS = 2.0
CREATION_DATE  = 
ORIGINATOR     = 

OBJECT_NAME    = CZ-2C R/B
OBJECT_ID      = 2007-010B
CENTER_NAME    = EARTH
REF_FRAME      = TEME
TIME_SYSTEM    = UTC
MEAN_ELEMENT_THEORY = SGP/SGP4

EPOCH          = 2026-02-26T05:49:12.695520
MEAN_MOTION    = 14.20241578
ECCENTRICITY   = .0058298
INCLINATION    = 98.3974
RA_OF_ASC_NODE = 171.0954
ARG_OF_PERICENTER = 328.4198
MEAN_ANOMALY   = 31.3485

EPHEMERIS_TYPE = 0
CLASSIFICATION_TYPE = U
NORAD_CAT_ID   = 31114
ELEMENT_SET_NO = 999
REV_AT_EPOCH   = 97809
BSTAR          = .67988536E-4
MEAN_MOTION_DOT = .106E-5
MEAN_MOTION_DDOT = 0

CCSDS_OMM_VERS = 2.0
CREATION_DATE  = 
ORIGINATOR     = 

OBJECT_NAME    = COSMO-SKYMED 1
OBJECT_ID      = 2007-023A
CENTER_NAME    = EARTH
REF_FRAME      = TEME
TIME_SYSTEM    = UTC
MEAN_ELEMENT_THEORY = SGP/SGP4

EPOCH          = 2026-02-26T05:32:04.469856
MEAN_MOTION    = 14.96435362
ECCENTRICITY   = .00012005
INCLINATION    = 97.8878
RA_OF_ASC_NODE = 248.1717
ARG_OF_PERICENTER = 81.2730
MEAN_ANOMALY   = 278.8627

EPHEMERIS_TYPE = 0
CLASSIFICATION_TYPE = U
NORAD_CAT_ID   = 31598
ELEMENT_SET_NO = 999
REV_AT_EPOCH   = 1319
BSTAR          = .22435843E-3
MEAN_MOTION_DOT = .2485E-4
MEAN_MOTION_DDOT = 0

CCSDS_OMM_VERS = 2.0
CREATION_DATE  = 
ORIGINATOR     = 

OBJECT_NAME    = COSMOS 2428
OBJECT_ID      = 2007-029A
CENTER_NAME    = EARTH
REF_FRAME      = TEME
TIME_SYSTEM    = UTC
MEAN_ELEMENT_THEORY = SGP/SGP4

EPOCH          = 2026-02-25T22:11:01.535712
MEAN_MOTION    = 14.12942598
ECCENTRICITY   = .0008435
INCLINATION    = 70.9408
RA_OF_ASC_NODE = 228.0385
ARG_OF_PERICENTER = 289.6724
MEAN_ANOMALY   = 70.3487

EPHEMERIS_TYPE = 0
CLASSIFICATION_TYPE = U
NORAD_CAT_ID   = 31792
ELEMENT_SET_NO = 999
REV_AT_EPOCH   = 96243
BSTAR          = .11185543E-3
MEAN_MOTION_DOT = .161E-5
MEAN_MOTION_DDOT = 0

CCSDS_OMM_VERS = 2.0
CREATION_DATE  = 
ORIGINATOR     = 

OBJECT_NAME    = SL-16 R/B
OBJECT_ID      = 2007-029B
CENTER_NAME    = EARTH
REF_FRAME      = TEME
TIME_SYSTEM    = UTC
MEAN_ELEMENT_THEORY = SGP/SGP4

EPOCH          = 2026-02-26T07:32:01.110336
MEAN_MOTION    = 14.14835352
ECCENTRICITY   = .00024684
INCLINATION    = 70.9755
RA_OF_ASC_NODE = 196.2952
ARG_OF_PERICENTER = 280.3239
MEAN_ANOMALY   = 98.2002

EPHEMERIS_TYPE = 0
CLASSIFICATION_TYPE = U
NORAD_CAT_ID   = 31793
ELEMENT_SET_NO = 999
REV_AT_EPOCH   = 96376
BSTAR          = -.88016296E-4
MEAN_MOTION_DOT = -.218E-5
MEAN_MOTION_DDOT = 0

CCSDS_OMM_VERS = 2.0
CREATION_DATE  = 
ORIGINATOR     = 

OBJECT_NAME    = KORONAS-FOTON
OBJECT_ID      = 2009-003A
CENTER_NAME    = EARTH
REF_FRAME      = TEME
TIME_SYSTEM    = UTC
MEAN_ELEMENT_THEORY = SGP/SGP4

EPOCH          = 2026-02-26T02:12:57.761280
MEAN_MOTION    = 15.42998813
ECCENTRICITY   = .00102148
INCLINATION    = 82.4296
RA_OF_ASC_NODE = 287.9332
ARG_OF_PERICENTER = 190.1055
MEAN_ANOMALY   = 169.9989

EPHEMERIS_TYPE = 0
CLASSIFICATION_TYPE = U
NORAD_CAT_ID   = 33504
ELEMENT_SET_NO = 999
REV_AT_EPOCH   = 94395
BSTAR          = .25669199E-3
MEAN_MOTION_DOT = .11369E-3
MEAN_MOTION_DDOT = 0

CCSDS_OMM_VERS = 2.0
CREATION_DATE  = 
ORIGINATOR     = 

OBJECT_NAME    = CZ-2C R/B
OBJECT_ID      = 2011-030B
CENTER_NAME    = EARTH
REF_FRAME      = TEME
TIME_SYSTEM    = UTC
MEAN_ELEMENT_THEORY = SGP/SGP4

EPOCH          = 2026-02-25T16:14:47.746464
MEAN_MOTION    = 14.81166195
ECCENTRICITY   = .0053526
INCLINATION    = 97.8521
RA_OF_ASC_NODE = 14.1831
ARG_OF_PERICENTER = 30.9095
MEAN_ANOMALY   = 148.2048

EPHEMERIS_TYPE = 0
CLASSIFICATION_TYPE = U
NORAD_CAT_ID   = 37731
ELEMENT_SET_NO = 999
REV_AT_EPOCH   = 78831
BSTAR          = .20397E-3
MEAN_MOTION_DOT = .1571E-4
MEAN_MOTION_DDOT = 0

CCSDS_OMM_VERS = 2.0
CREATION_DATE  = 
ORIGINATOR     = 

OBJECT_NAME    = H-2A R/B
OBJECT_ID      = 2012-025E
CENTER_NAME    = EARTH
REF_FRAME      = TEME
TIME_SYSTEM    = UTC
MEAN_ELEMENT_THEORY = SGP/SGP4

EPOCH          = 2026-02-25T21:11:15.602208
MEAN_MOTION    = 14.95047080
ECCENTRICITY   = .00446554
INCLINATION    = 98.4702
RA_OF_ASC_NODE = 22.9874
ARG_OF_PERICENTER = 353.2098
MEAN_ANOMALY   = 6.8509

EPHEMERIS_TYPE = 0
CLASSIFICATION_TYPE = U
NORAD_CAT_ID   = 38341
ELEMENT_SET_NO = 999
REV_AT_EPOCH   = 74645
BSTAR          = .29445067E-3
MEAN_MOTION_DOT = .3218E-4
MEAN_MOTION_DDOT = 0

CCSDS_OMM_VERS = 2.0
CREATION_DATE  = 
ORIGINATOR     = 

OBJECT_NAME    = SHIJIAN-16 (SJ-16)
OBJECT_ID      = 2013-057A
CENTER_NAME    = EARTH
REF_FRAME      = TEME
TIME_SYSTEM    = UTC
MEAN_ELEMENT_THEORY = SGP/SGP4

EPOCH          = 2026-02-26T07:10:51.167712
MEAN_MOTION    = 14.92286149
ECCENTRICITY   = .0015989
INCLINATION    = 74.9715
RA_OF_ASC_NODE = 206.6491
ARG_OF_PERICENTER = 141.6946
MEAN_ANOMALY   = 218.5381

EPHEMERIS_TYPE = 0
CLASSIFICATION_TYPE = U
NORAD_CAT_ID   = 39358
ELEMENT_SET_NO = 999
REV_AT_EPOCH   = 66980
BSTAR          = .18690995E-3
MEAN_MOTION_DOT = .1884E-4
MEAN_MOTION_DDOT = 0

