ALOS (DAICHI)           
1 28931U 06002A   26056.45314133  .00001371  00000+0  23809-3 0  9990
2 28931  98.1197  12.4722 0001446  53.7253 306.4086 14.69763473 71687
H-2A R/B                
1 28932U 06002B   26057.12649078  .00008357  00000+0  42278-3 0  9997
2 28932  98.2385 203.1603 0051935 280.9051  78.6338 15.16137625 92681
RESURS-DK 1             
1 29228U 06021A   26057.02955765  .00002154  00000+0  12902-3 0  9999
2 29228  69.9312 267.1863 0002779 170.8611 189.2606 15.12659706 85767
CZ-4B R/B               
1 29507U 06046C   26057.13067496  .00004876  00000+0  24882-3 0  9996
2 29507  97.5626 102.0705 0031987 309.3597  50.4802 15.16765125 58291
CZ-2C R/B               
1 31114U 07010B   26057.24250805  .00000106  00000+0  67989-4 0  9993
2 31114  98.3974 171.0954 0058298 328.4198  31.3485 14.20241578978097
COSMO-SKYMED 1          
1 31598U 07023A   26057.23060729  .00002485  00000+0  22436-3 0  9995
2 31598  97.8878 248.1717 0001200  81.2730 278.8627 14.96435362 13196
COSMOS 2428             
1 31792U 07029A   26056.92432333  .00000161  00000+0  11186-3 0  9995
2 31792  70.9408 228.0385 0008435 289.6724  70.3487 14.12942598962436
SL-16 R/B               
1 31793U 07029B   26057.31390174 -.00000218  00000+0 -88016-4 0  9998
2 31793  70.9755 196.2952 0002468 280.3239  98.2002 14.14835352963767
KORONAS-FOTON           
1 33504U 09003A   26057.09233520  .00011369  00000+0  25669-3 0  9991
2 33504  82.4296 287.9332 0010214 190.1055 169.9989 15.42998813943952
CZ-2C R/B               
1 37731U 11030B   26056.67694151  .00001571  00000+0  20397-3 0  9991
2 37731  97.8521  14.1831 0053526  30.9095 148.2048 14.81166195788316
H-2A R/B                
1 38341U 12025E   26056.88281947  .00003218  00000+0  29445-3 0  9995
2 38341  98.4702  22.9874 0044655 353.2098   6.8509 14.95047080746459
SHIJIAN-16 (SJ-16)      
1 39358U 13057A   26057.29920333  .00001884  00000+0  18691-3 0  9993
2 39358  74.9715 206.6491 0015989 141.6946 218.5381 14.92286149669807
